{
  "type": "FeatureCollection",
  "features": [
    {
      "type": "Feature",
      "properties": {
        "norad_id": 52912,
        "name": "GAOFEN-12 03",
        "group": "resource",
        "lat": -52.55933415572917,
        "lon": -109.82983880120617,
        "alt_km": 637.9315226446006,
        "timestamp": "2025-12-18T13:51:49.318548+00:00",
        "meta_object_name": "GAOFEN-12 03",
        "meta_object_id": "2022-069A",
        "meta_epoch": "2025-12-18T05:59:20.152320",
        "meta_mean_motion": 14.79621839,
        "meta_eccentricity": 0.00020634,
        "meta_inclination": 97.8487,
        "meta_ra_of_asc_node": 239.4709,
        "meta_arg_of_pericenter": 55.1009,
        "meta_mean_anomaly": 305.0396,
        "meta_ephemeris_type": 0,
        "meta_classification_type": "U",
        "meta_norad_cat_id": 52912,
        "meta_element_set_no": 999,
        "meta_rev_at_epoch": 18785,
        "meta_bstar": 0.00013598214,
        "meta_mean_motion_dot": 9.69e-06,
        "meta_mean_motion_ddot": 0,
        "tle_line1": "1 52912U 22069A   25352.24953880  .00000969  00000+0  13598-3 0  9996",
        "tle_line2": "2 52912  97.8487 239.4709 0002063  55.1009 305.0396 14.79621839187854"
      },
      "geometry": {
        "type": "Point",
        "coordinates": [
          -109.82983880120617,
          -52.55933415572917
        ]
      }
    },
    {
      "type": "Feature",
      "properties": {
        "norad_id": 54754,
        "name": "SWOT",
        "group": "resource",
        "lat": 55.37691920711994,
        "lon": -62.32750046993535,
        "alt_km": 887.5546441412189,
        "timestamp": "2025-12-18T13:51:49.318558+00:00",
        "meta_object_name": "SWOT",
        "meta_object_id": "2022-173A",
        "meta_epoch": "2025-12-18T06:43:51.169440",
        "meta_mean_motion": 14.00167687,
        "meta_eccentricity": 3.654e-05,
        "meta_inclination": 77.6108,
        "meta_ra_of_asc_node": 279.5104,
        "meta_arg_of_pericenter": 98.1983,
        "meta_mean_anomaly": 261.921,
        "meta_ephemeris_type": 0,
        "meta_classification_type": "U",
        "meta_norad_cat_id": 54754,
        "meta_element_set_no": 999,
        "meta_rev_at_epoch": 15383,
        "meta_bstar": 4.5197949e-05,
        "meta_mean_motion_dot": 6.4e-07,
        "meta_mean_motion_ddot": 0,
        "tle_line1": "1 54754U 22173A   25352.28045335  .00000064  00000+0  45198-4 0  9997",
        "tle_line2": "2 54754  77.6108 279.5104 0000365  98.1983 261.9210 14.00167687153837"
      },
      "geometry": {
        "type": "Point",
        "coordinates": [
          -62.32750046993535,
          55.37691920711994
        ]
      }
    },
    {
      "type": "Feature",
      "properties": {
        "norad_id": 57654,
        "name": "GAOFEN-12 04",
        "group": "resource",
        "lat": 60.53835114695315,
        "lon": 102.49934538873309,
        "alt_km": 623.714776325347,
        "timestamp": "2025-12-18T13:51:49.318568+00:00",
        "meta_object_name": "GAOFEN-12 04",
        "meta_object_id": "2023-123A",
        "meta_epoch": "2025-12-18T06:50:19.793184",
        "meta_mean_motion": 14.79715948,
        "meta_eccentricity": 0.00012495,
        "meta_inclination": 97.9126,
        "meta_ra_of_asc_node": 267.958,
        "meta_arg_of_pericenter": 75.6312,
        "meta_mean_anomaly": 284.5038,
        "meta_ephemeris_type": 0,
        "meta_classification_type": "U",
        "meta_norad_cat_id": 57654,
        "meta_element_set_no": 999,
        "meta_rev_at_epoch": 12587,
        "meta_bstar": 0.0001493862,
        "meta_mean_motion_dot": 1.071e-05,
        "meta_mean_motion_ddot": 0,
        "tle_line1": "1 57654U 23123A   25352.28495131  .00001071  00000+0  14939-3 0  9995",
        "tle_line2": "2 57654  97.9126 267.9580 0001249  75.6312 284.5038 14.79715948125878"
      },
      "geometry": {
        "type": "Point",
        "coordinates": [
          102.49934538873309,
          60.53835114695315
        ]
      }
    },
    {
      "type": "Feature",
      "properties": {
        "norad_id": 59065,
        "name": "PARS 1",
        "group": "resource",
        "lat": 1.6839881261669223,
        "lon": -36.58618709346327,
        "alt_km": 440.6895802422723,
        "timestamp": "2025-12-18T13:51:49.318579+00:00",
        "meta_object_name": "PARS 1",
        "meta_object_id": "2024-039Q",
        "meta_epoch": "2025-12-18T06:03:52.803072",
        "meta_mean_motion": 15.41098358,
        "meta_eccentricity": 0.00122099,
        "meta_inclination": 97.4633,
        "meta_ra_of_asc_node": 323.3027,
        "meta_arg_of_pericenter": 55.7231,
        "meta_mean_anomaly": 304.517,
        "meta_ephemeris_type": 0,
        "meta_classification_type": "U",
        "meta_norad_cat_id": 59065,
        "meta_element_set_no": 999,
        "meta_rev_at_epoch": 10073,
        "meta_bstar": 0.0002575563,
        "meta_mean_motion_dot": 0.00010596,
        "meta_mean_motion_ddot": 0,
        "tle_line1": "1 59065U 24039Q   25352.25269448  .00010596  00000+0  25756-3 0  9998",
        "tle_line2": "2 59065  97.4633 323.3027 0012209  55.7231 304.5170 15.41098358100731"
      },
      "geometry": {
        "type": "Point",
        "coordinates": [
          -36.58618709346327,
          1.6839881261669223
        ]
      }
    },
    {
      "type": "Feature",
      "properties": {
        "norad_id": 59371,
        "name": "RESURS-P 4",
        "group": "resource",
        "lat": -43.238009591861946,
        "lon": -54.3321168557233,
        "alt_km": 476.32971707954584,
        "timestamp": "2025-12-18T13:51:49.318589+00:00",
        "meta_object_name": "RESURS-P 4",
        "meta_object_id": "2024-061A",
        "meta_epoch": "2025-12-18T07:47:02.859360",
        "meta_mean_motion": 15.3212941,
        "meta_eccentricity": 0.00011202,
        "meta_inclination": 97.255,
        "meta_ra_of_asc_node": 298.5397,
        "meta_arg_of_pericenter": 58.1213,
        "meta_mean_anomaly": 302.0138,
        "meta_ephemeris_type": 0,
        "meta_classification_type": "U",
        "meta_norad_cat_id": 59371,
        "meta_element_set_no": 999,
        "meta_rev_at_epoch": 9606,
        "meta_bstar": 0.00011398156,
        "meta_mean_motion_dot": 3.459e-05,
        "meta_mean_motion_ddot": 0,
        "tle_line1": "1 59371U 24061A   25352.32433865  .00003459  00000+0  11398-3 0  9994",
        "tle_line2": "2 59371  97.2550 298.5397 0001120  58.1213 302.0138 15.32129410 96068"
      },
      "geometry": {
        "type": "Point",
        "coordinates": [
          -54.3321168557233,
          -43.238009591861946
        ]
      }
    },
    {
      "type": "Feature",
      "properties": {
        "norad_id": 59625,
        "name": "LEGION 1",
        "group": "resource",
        "lat": -33.98346345305053,
        "lon": -117.9431193965832,
        "alt_km": 522.0302924011858,
        "timestamp": "2025-12-18T13:51:49.318600+00:00",
        "meta_object_name": "LEGION 1",
        "meta_object_id": "2024-081A",
        "meta_epoch": "2025-12-18T06:35:14.570016",
        "meta_mean_motion": 15.16534805,
        "meta_eccentricity": 0.00036831,
        "meta_inclination": 97.5214,
        "meta_ra_of_asc_node": 66.866,
        "meta_arg_of_pericenter": 292.6917,
        "meta_mean_anomaly": 67.3926,
        "meta_ephemeris_type": 0,
        "meta_classification_type": "U",
        "meta_norad_cat_id": 59625,
        "meta_element_set_no": 999,
        "meta_rev_at_epoch": 9011,
        "meta_bstar": 0.00021858985,
        "meta_mean_motion_dot": 4.195e-05,
        "meta_mean_motion_ddot": 0,
        "tle_line1": "1 59625U 24081A   25352.27447419  .00004195  00000+0  21859-3 0  9993",
        "tle_line2": "2 59625  97.5214  66.8660 0003683 292.6917  67.3926 15.16534805 90117"
      },
      "geometry": {
        "type": "Point",
        "coordinates": [
          -117.9431193965832,
          -33.98346345305053
        ]
      }
    },
    {
      "type": "Feature",
      "properties": {
        "norad_id": 59626,
        "name": "LEGION 2",
        "group": "resource",
        "lat": 33.89827244160337,
        "lon": 62.16063085396795,
        "alt_km": 516.4617568617923,
        "timestamp": "2025-12-18T13:51:49.318628+00:00",
        "meta_object_name": "LEGION 2",
        "meta_object_id": "2024-081B",
        "meta_epoch": "2025-12-18T05:47:43.605024",
        "meta_mean_motion": 15.16546335,
        "meta_eccentricity": 0.00056231,
        "meta_inclination": 97.5217,
        "meta_ra_of_asc_node": 66.9208,
        "meta_arg_of_pericenter": 269.7372,
        "meta_mean_anomaly": 90.3217,
        "meta_ephemeris_type": 0,
        "meta_classification_type": "U",
        "meta_norad_cat_id": 59626,
        "meta_element_set_no": 999,
        "meta_rev_at_epoch": 9011,
        "meta_bstar": 0.00022822962,
        "meta_mean_motion_dot": 4.386e-05,
        "meta_mean_motion_ddot": 0,
        "tle_line1": "1 59626U 24081B   25352.24147691  .00004386  00000+0  22823-3 0  9994",
        "tle_line2": "2 59626  97.5217  66.9208 0005623 269.7372  90.3217 15.16546335 90116"
      },
      "geometry": {
        "type": "Point",
        "coordinates": [
          62.16063085396795,
          33.89827244160337
        ]
      }
    }
  ]
}